[{"OBJECT_NAME":"COSMOS 2517 (GEO-IK 2)","OBJECT_ID":"2016-034A","EPOCH":"2026-03-09T22:46:47.568288","MEAN_MOTION":13.85906021,"ECCENTRICITY":9.478e-5,"INCLINATION":99.193,"RA_OF_ASC_NODE":79.5998,"ARG_OF_PERICENTER":99.0909,"MEAN_ANOMALY":261.0354,"EPHEMERIS_TYPE":0,"CLASSIFICATION_TYPE":"U","NORAD_CAT_ID":41579,"ELEMENT_SET_NO":999,"REV_AT_EPOCH":49388,"BSTAR":5.6006133e-5,"MEAN_MOTION_DOT":2.1e-7,"MEAN_MOTION_DDOT":0},{"OBJECT_NAME":"COSMOS 2266","OBJECT_ID":"1993-070A","EPOCH":"2026-03-09T16:58:25.442688","MEAN_MOTION":13.75168189,"ECCENTRICITY":0.00494767,"INCLINATION":82.9542,"RA_OF_ASC_NODE":154.838,"ARG_OF_PERICENTER":104.8506,"MEAN_ANOMALY":7.0059,"EPHEMERIS_TYPE":0,"CLASSIFICATION_TYPE":"U","NORAD_CAT_ID":22888,"ELEMENT_SET_NO":999,"REV_AT_EPOCH":62035,"BSTAR":7.094977e-5,"MEAN_MOTION_DOT":8.4e-7,"MEAN_MOTION_DDOT":0}]
